{
  "type": "FeatureCollection",
  "features": [
    {
      "type": "Feature",
      "properties": {
        "norad_id": 66174,
        "name": "HTV-X1",
        "group": "stations",
        "lat": 23.185631885205016,
        "lon": -92.27589424987421,
        "alt_km": 416.14832470818783,
        "timestamp": "2025-12-19T18:58:40.359205+00:00",
        "meta_object_name": "HTV-X1",
        "meta_object_id": "2025-241A",
        "meta_epoch": "2025-12-19T01:18:34.104096",
        "meta_mean_motion": 15.49660414,
        "meta_eccentricity": 0.00031768,
        "meta_inclination": 51.6316,
        "meta_ra_of_asc_node": 111.2076,
        "meta_arg_of_pericenter": 269.7772,
        "meta_mean_anomaly": 90.2853,
        "meta_ephemeris_type": 0,
        "meta_classification_type": "U",
        "meta_norad_cat_id": 66174,
        "meta_element_set_no": 999,
        "meta_rev_at_epoch": 51,
        "meta_bstar": 0.00012867135,
        "meta_mean_motion_dot": 6.809e-05,
        "meta_mean_motion_ddot": 0,
        "tle_line1": "1 66174U 25241A   25353.05456139  .00006809  00000+0  12867-3 0  9998",
        "tle_line2": "2 66174  51.6316 111.2076 0003176 269.7772  90.2853 15.49660414   516"
      },
      "geometry": {
        "type": "Point",
        "coordinates": [
          -92.27589424987421,
          23.185631885205016
        ]
      }
    },
    {
      "type": "Feature",
      "properties": {
        "norad_id": 66515,
        "name": "SZ-21 MODULE",
        "group": "stations",
        "lat": 8.303450845286418,
        "lon": 143.51194253331448,
        "alt_km": 380.4955892420012,
        "timestamp": "2025-12-19T18:58:40.359215+00:00",
        "meta_object_name": "SZ-21 MODULE",
        "meta_object_id": "2025-246C",
        "meta_epoch": "2025-12-19T05:59:43.929600",
        "meta_mean_motion": 15.62811821,
        "meta_eccentricity": 0.0005734,
        "meta_inclination": 41.4773,
        "meta_ra_of_asc_node": 336.3242,
        "meta_arg_of_pericenter": 295.0263,
        "meta_mean_anomaly": 64.9981,
        "meta_ephemeris_type": 0,
        "meta_classification_type": "U",
        "meta_norad_cat_id": 66515,
        "meta_element_set_no": 999,
        "meta_rev_at_epoch": 546,
        "meta_bstar": 0.00023433349,
        "meta_mean_motion_dot": 0.00021457,
        "meta_mean_motion_ddot": 0,
        "tle_line1": "1 66515U 25246C   25353.24981400  .00021457  00000+0  23433-3 0  9994",
        "tle_line2": "2 66515  41.4773 336.3242 0005734 295.0263  64.9981 15.62811821  5467"
      },
      "geometry": {
        "type": "Point",
        "coordinates": [
          143.51194253331448,
          8.303450845286418
        ]
      }
    },
    {
      "type": "Feature",
      "properties": {
        "norad_id": 66645,
        "name": "SHENZHOU-22",
        "group": "stations",
        "lat": 3.796591704880304,
        "lon": 149.58132765435087,
        "alt_km": 387.530010559718,
        "timestamp": "2025-12-19T18:58:40.359225+00:00",
        "meta_object_name": "SHENZHOU-22",
        "meta_object_id": "2025-272A",
        "meta_epoch": "2025-12-19T05:56:22.256448",
        "meta_mean_motion": 15.59458428,
        "meta_eccentricity": 0.00077261,
        "meta_inclination": 41.4684,
        "meta_ra_of_asc_node": 337.1916,
        "meta_arg_of_pericenter": 88.0762,
        "meta_mean_anomaly": 272.0962,
        "meta_ephemeris_type": 0,
        "meta_classification_type": "U",
        "meta_norad_cat_id": 66645,
        "meta_element_set_no": 999,
        "meta_rev_at_epoch": 26357,
        "meta_bstar": 0.00024976186,
        "meta_mean_motion_dot": 0.00020088,
        "meta_mean_motion_ddot": 0,
        "tle_line1": "1 66645U 25272A   25353.24747982  .00020088  00000+0  24976-3 0  9994",
        "tle_line2": "2 66645  41.4684 337.1916 0007726  88.0762 272.0962 15.59458428263571"
      },
      "geometry": {
        "type": "Point",
        "coordinates": [
          149.58132765435087,
          3.796591704880304
        ]
      }
    },
    {
      "type": "Feature",
      "properties": {
        "norad_id": 66664,
        "name": "SOYUZ-MS 28",
        "group": "stations",
        "lat": 23.185630455163114,
        "lon": -92.27589282622631,
        "alt_km": 416.14832487680906,
        "timestamp": "2025-12-19T18:58:40.359235+00:00",
        "meta_object_name": "SOYUZ-MS 28",
        "meta_object_id": "2025-275A",
        "meta_epoch": "2025-12-19T01:18:34.104096",
        "meta_mean_motion": 15.49660414,
        "meta_eccentricity": 0.00031768,
        "meta_inclination": 51.6316,
        "meta_ra_of_asc_node": 111.2076,
        "meta_arg_of_pericenter": 269.7772,
        "meta_mean_anomaly": 90.2853,
        "meta_ephemeris_type": 0,
        "meta_classification_type": "U",
        "meta_norad_cat_id": 66664,
        "meta_element_set_no": 999,
        "meta_rev_at_epoch": 128,
        "meta_bstar": 0.00012867135,
        "meta_mean_motion_dot": 6.809e-05,
        "meta_mean_motion_ddot": 0,
        "tle_line1": "1 66664U 25275A   25353.05456139  .00006809  00000+0  12867-3 0  9999",
        "tle_line2": "2 66664  51.6316 111.2076 0003176 269.7772  90.2853 15.49660414  1285"
      },
      "geometry": {
        "type": "Point",
        "coordinates": [
          -92.27589282622631,
          23.185630455163114
        ]
      }
    },
    {
      "type": "Feature",
      "properties": {
        "norad_id": 66906,
        "name": "1998-067XS",
        "group": "stations",
        "lat": -21.98433787784452,
        "lon": -53.90856200750147,
        "alt_km": 415.2209303077161,
        "timestamp": "2025-12-19T18:58:40.359245+00:00",
        "meta_object_name": "1998-067XS",
        "meta_object_id": "1998-067XS",
        "meta_epoch": "2025-12-18T14:14:47.325984",
        "meta_mean_motion": 15.50877887,
        "meta_eccentricity": 0.00030668,
        "meta_inclination": 51.6311,
        "meta_ra_of_asc_node": 113.3804,
        "meta_arg_of_pericenter": 230.517,
        "meta_mean_anomaly": 129.5548,
        "meta_ephemeris_type": 0,
        "meta_classification_type": "U",
        "meta_norad_cat_id": 66906,
        "meta_element_set_no": 999,
        "meta_rev_at_epoch": 252,
        "meta_bstar": 0.00040765177,
        "meta_mean_motion_dot": 0.00023614,
        "meta_mean_motion_ddot": 0,
        "tle_line1": "1 66906U 98067XS  25352.59360331  .00023614  00000+0  40765-3 0  9994",
        "tle_line2": "2 66906  51.6311 113.3804 0003066 230.5170 129.5548 15.50877887  2528"
      },
      "geometry": {
        "type": "Point",
        "coordinates": [
          -53.90856200750147,
          -21.98433787784452
        ]
      }
    },
    {
      "type": "Feature",
      "properties": {
        "norad_id": 66907,
        "name": "1998-067XT",
        "group": "stations",
        "lat": -48.37995845277911,
        "lon": -9.560190671652506,
        "alt_km": 411.9687749259683,
        "timestamp": "2025-12-19T18:58:40.359255+00:00",
        "meta_object_name": "1998-067XT",
        "meta_object_id": "1998-067XT",
        "meta_epoch": "2025-12-18T14:04:54.777504",
        "meta_mean_motion": 15.52162368,
        "meta_eccentricity": 0.00039418,
        "meta_inclination": 51.6304,
        "meta_ra_of_asc_node": 113.334,
        "meta_arg_of_pericenter": 262.1658,
        "meta_mean_anomaly": 97.8884,
        "meta_ephemeris_type": 0,
        "meta_classification_type": "U",
        "meta_norad_cat_id": 66907,
        "meta_element_set_no": 999,
        "meta_rev_at_epoch": 252,
        "meta_bstar": 0.0008765902,
        "meta_mean_motion_dot": 0.0005395,
        "meta_mean_motion_ddot": 0,
        "tle_line1": "1 66907U 98067XT  25352.58674511  .00053950  00000+0  87659-3 0  9991",
        "tle_line2": "2 66907  51.6304 113.3340 0003941 262.1658  97.8884 15.52162368  2523"
      },
      "geometry": {
        "type": "Point",
        "coordinates": [
          -9.560190671652506,
          -48.37995845277911
        ]
      }
    },
    {
      "type": "Feature",
      "properties": {
        "norad_id": 66908,
        "name": "1998-067XU",
        "group": "stations",
        "lat": -49.711808396132525,
        "lon": -3.495629531852144,
        "alt_km": 411.63814345642095,
        "timestamp": "2025-12-19T18:58:40.359265+00:00",
        "meta_object_name": "1998-067XU",
        "meta_object_id": "1998-067XU",
        "meta_epoch": "2025-12-18T14:03:56.443680",
        "meta_mean_motion": 15.52259493,
        "meta_eccentricity": 0.00039838,
        "meta_inclination": 51.6306,
        "meta_ra_of_asc_node": 113.3296,
        "meta_arg_of_pericenter": 260.0245,
        "meta_mean_anomaly": 100.0295,
        "meta_ephemeris_type": 0,
        "meta_classification_type": "U",
        "meta_norad_cat_id": 66908,
        "meta_element_set_no": 999,
        "meta_rev_at_epoch": 252,
        "meta_bstar": 0.00087908108,
        "meta_mean_motion_dot": 0.00054298,
        "meta_mean_motion_ddot": 0,
        "tle_line1": "1 66908U 98067XU  25352.58606995  .00054298  00000+0  87908-3 0  9996",
        "tle_line2": "2 66908  51.6306 113.3296 0003983 260.0245 100.0295 15.52259493  2520"
      },
      "geometry": {
        "type": "Point",
        "coordinates": [
          -3.495629531852144,
          -49.711808396132525
        ]
      }
    }
  ]
}